[
    {
        "CCSDS_OMM_VERS": "3.0",
        "COMMENT": "GENERATED VIA SPACE-TRACK.ORG API",
        "CREATION_DATE": "2025-05-02T02:33:21",
        "ORIGINATOR": "18 SPCS",
        "OBJECT_NAME": "GALILEO 10 (206)",
        "OBJECT_ID": "2015-045B",
        "CENTER_NAME": "EARTH",
        "REF_FRAME": "TEME",
        "TIME_SYSTEM": "UTC",
        "MEAN_ELEMENT_THEORY": "SGP4",
        "EPOCH": "2025-04-29T21:57:37.410912",
        "MEAN_MOTION": "1.70473867",
        "ECCENTRICITY": "0.00019570",
        "INCLINATION": "55.0841",
        "RA_OF_ASC_NODE": "233.0149",
        "ARG_OF_PERICENTER": "44.4615",
        "MEAN_ANOMALY": "315.5527",
        "EPHEMERIS_TYPE": "0",
        "CLASSIFICATION_TYPE": "U",
        "NORAD_CAT_ID": "40890",
        "ELEMENT_SET_NO": "999",
        "REV_AT_EPOCH": "5999",
        "BSTAR": "0.00000000000000",
        "MEAN_MOTION_DOT": "-0.00000008",
        "MEAN_MOTION_DDOT": "0.0000000000000",
        "SEMIMAJOR_AXIS": "29600.335",
        "PERIOD": "844.704",
        "APOAPSIS": "23227.993",
        "PERIAPSIS": "23216.408",
        "OBJECT_TYPE": "PAYLOAD",
        "RCS_SIZE": "LARGE",
        "COUNTRY_CODE": "ESA",
        "LAUNCH_DATE": "2015-09-11",
        "SITE": "FRGUI",
        "DECAY_DATE": null,
        "FILE": "4716572",
        "GP_ID": "286609035",
        "TLE_LINE0": "0 GALILEO 10 (206)",
        "TLE_LINE1": "1 40890U 15045B   25119.91501633 -.00000008  00000-0  00000-0 0  9991",
        "TLE_LINE2": "2 40890  55.0841 233.0149 0001957  44.4615 315.5527  1.70473867 59997"
    }
]